FENGYUN 1C DEB          
1 36278U 99025DXF 17343.19749022  .00000025  00000-0  37595-4 0  9993
2 36278  99.2168 126.0088 0063785 237.0609 122.4418 14.13680032523194
